[
    {
        "CCSDS_OMM_VERS": "3.0",
        "COMMENT": "GENERATED VIA SPACE-TRACK.ORG API",
        "CREATION_DATE": "2025-04-14T03:05:54",
        "ORIGINATOR": "18 SPCS",
        "OBJECT_NAME": "BEIDOU 9",
        "OBJECT_ID": "2011-038A",
        "CENTER_NAME": "EARTH",
        "REF_FRAME": "TEME",
        "TIME_SYSTEM": "UTC",
        "MEAN_ELEMENT_THEORY": "SGP4",
        "EPOCH": "2025-04-13T20:13:38.695008",
        "MEAN_MOTION": "1.00290635",
        "ECCENTRICITY": "0.01411370",
        "INCLINATION": "54.5694",
        "RA_OF_ASC_NODE": "169.5123",
        "ARG_OF_PERICENTER": "230.5703",
        "MEAN_ANOMALY": "198.2027",
        "EPHEMERIS_TYPE": "0",
        "CLASSIFICATION_TYPE": "U",
        "NORAD_CAT_ID": "37763",
        "ELEMENT_SET_NO": "999",
        "REV_AT_EPOCH": "5034",
        "BSTAR": "0.00000000000000",
        "MEAN_MOTION_DOT": "-0.00000023",
        "MEAN_MOTION_DDOT": "0.0000000000000",
        "SEMIMAJOR_AXIS": "42159.448",
        "PERIOD": "1435.827",
        "APOAPSIS": "36376.339",
        "PERIAPSIS": "35186.288",
        "OBJECT_TYPE": "PAYLOAD",
        "RCS_SIZE": "LARGE",
        "COUNTRY_CODE": "PRC",
        "LAUNCH_DATE": "2011-07-26",
        "SITE": "XSC",
        "DECAY_DATE": null,
        "FILE": "4701263",
        "GP_ID": "285535186",
        "TLE_LINE0": "0 BEIDOU 9",
        "TLE_LINE1": "1 37763U 11038A   25103.84280897 -.00000023  00000-0  00000-0 0  9992",
        "TLE_LINE2": "2 37763  54.5694 169.5123 0141137 230.5703 198.2027  1.00290635 50342"
    }
]